QIANFAN-1               
1 60379U 24140A   25309.95661913  .00000042  00000+0  46902-4 0  9995
2 60379  88.9728 303.0947 0016451 327.2227  32.7902 13.50978251 62380
QIANFAN-2               
1 60380U 24140B   25309.98554776  .00000045  00000+0  51171-4 0  9995
2 60380  88.9714 302.9361 0011035 298.5598  61.4442 13.50970357 62443
QIANFAN-3               
1 60381U 24140C   25309.99382268  .00000089  00000+0  11997-3 0  9991
2 60381  88.9707 303.0707 0012431 312.2954  47.7142 13.50976498 62359
QIANFAN-4               
1 60382U 24140D   25309.96900263  .00000046  00000+0  52418-4 0  9997
2 60382  88.9732 302.9616 0011315 301.4704  58.5341 13.50976946 62470
QIANFAN-5               
1 60383U 24140E   25309.94438945  .00000065  00000+0  82631-4 0  9990
2 60383  88.9707 303.1013 0014026 324.1118  35.9090 13.50973859 62335
QIANFAN-6               
1 60384U 24140F   25309.96498779  .00000039  00000+0  41571-4 0  9993
2 60384  88.9733 302.8355 0011563 308.2296  51.7814 13.50974744 62539
QIANFAN-7               
1 60385U 24140G   25309.94656836  .00000351  00000+0  13654-3 0  9999
2 60385  88.9746 298.0495 0015754 153.7202 206.4795 14.27591117 65142
QIANFAN-8               
1 60386U 24140H   25309.97318963  .00000052  00000+0  62390-4 0  9999
2 60386  88.9735 303.0716 0015058 309.2355  50.7459 13.50972797 62380
